HIMAWARI-8              
1 40267U 14060A   23251.88427766 -.00000288  00000+0  00000+0 0  9998
2 40267   0.0157 231.7931 0000937 350.4745 224.3928  1.00273724 32604
